[{"OBJECT_NAME":"STARLINK-2423","OBJECT_ID":"2021-018AY","EPOCH":"2026-03-09T17:15:42.967584","MEAN_MOTION":15.06383116,"ECCENTRICITY":0.00015138,"INCLINATION":53.0551,"RA_OF_ASC_NODE":251.4863,"ARG_OF_PERICENTER":85.9067,"MEAN_ANOMALY":274.2095,"EPHEMERIS_TYPE":0,"CLASSIFICATION_TYPE":"U","NORAD_CAT_ID":47833,"ELEMENT_SET_NO":999,"REV_AT_EPOCH":27665,"BSTAR":-0.0002990341,"MEAN_MOTION_DOT":-4.731e-5,"MEAN_MOTION_DDOT":0},{"OBJECT_NAME":"STARLING 2","OBJECT_ID":"2023-100B","EPOCH":"2026-03-09T22:50:31.935264","MEAN_MOTION":15.06172687,"ECCENTRICITY":0.00065493,"INCLINATION":99.5117,"RA_OF_ASC_NODE":63.5956,"ARG_OF_PERICENTER":83.1191,"MEAN_ANOMALY":277.0775,"EPHEMERIS_TYPE":0,"CLASSIFICATION_TYPE":"U","NORAD_CAT_ID":57387,"ELEMENT_SET_NO":999,"REV_AT_EPOCH":14496,"BSTAR":0.00017665492,"MEAN_MOTION_DOT":2.498e-5,"MEAN_MOTION_DDOT":0}]
